{"type": "FeatureCollection", "features": [{"type": "Feature", "properties": {"norad_id": 2807, "name": "OPS 7218 (TRANSIT 16)", "group": "nnss", "lat": 11.433479515167404, "lon": 174.1507574423136, "alt_km": 1058.2995612181812, "timestamp": "2025-12-06T16:45:42.990423+00:00", "meta": {"OBJECT_NAME": "OPS 7218 (TRANSIT 16)", "OBJECT_ID": "1967-048A", "EPOCH": "2025-12-06T00:04:17.891904", "MEAN_MOTION": 13.50720333, "ECCENTRICITY": 0.00216313, "INCLINATION": 89.6733, "RA_OF_ASC_NODE": 354.2398, "ARG_OF_PERICENTER": 132.2001, "MEAN_ANOMALY": 256.5241, "EPHEMERIS_TYPE": 0, "CLASSIFICATION_TYPE": "U", "NORAD_CAT_ID": 2807, "ELEMENT_SET_NO": 999, "REV_AT_EPOCH": 88185, "BSTAR": 0.00025066895, "MEAN_MOTION_DOT": 1.72e-06, "MEAN_MOTION_DDOT": 0}, "tle": {"line1": "1 02807U 67048A   25340.00298486  .00000172  00000+0  25067-3 0  9995", "line2": "2 02807  89.6733 354.2398 0021631 132.2001 256.5241 13.50720333881853"}}, "geometry": {"type": "Point", "coordinates": [174.1507574423136, 11.433479515167404]}}, {"type": "Feature", "properties": {"norad_id": 2965, "name": "OPS 4947 (TRANSIT 17)", "group": "nnss", "lat": 6.937543262641137, "lon": -155.1948254583393, "alt_km": 1055.3768407757589, "timestamp": "2025-12-06T16:45:42.990445+00:00", "meta": {"OBJECT_NAME": "OPS 4947 (TRANSIT 17)", "OBJECT_ID": "1967-092A", "EPOCH": "2025-12-06T01:50:48.820416", "MEAN_MOTION": 13.53451191, "ECCENTRICITY": 0.00458489, "INCLINATION": 89.2503, "RA_OF_ASC_NODE": 24.9437, "ARG_OF_PERICENTER": 254.5025, "MEAN_ANOMALY": 132.75, "EPHEMERIS_TYPE": 0, "CLASSIFICATION_TYPE": "U", "NORAD_CAT_ID": 2965, "ELEMENT_SET_NO": 999, "REV_AT_EPOCH": 87007, "BSTAR": 0.00030153037, "MEAN_MOTION_DOT": 2.15e-06, "MEAN_MOTION_DDOT": 0}, "tle": {"line1": "1 02965U 67092A   25340.07695394  .00000215  00000+0  30153-3 0  9995", "line2": "2 02965  89.2503  24.9437 0045848 254.5025 132.7500 13.53451191870075"}}, "geometry": {"type": "Point", "coordinates": [-155.1948254583393, 6.937543262641137]}}, {"type": "Feature", "properties": {"norad_id": 3133, "name": "OPS 7034 (TRANSIT 18)", "group": "nnss", "lat": 3.598540770969684, "lon": -86.37980806508236, "alt_km": 1123.4245603538902, "timestamp": "2025-12-06T16:45:42.990459+00:00", "meta": {"OBJECT_NAME": "OPS 7034 (TRANSIT 18)", "OBJECT_ID": "1968-012A", "EPOCH": "2025-12-05T21:31:36.702048", "MEAN_MOTION": 13.51563444, "ECCENTRICITY": 0.0073213, "INCLINATION": 90.0272, "RA_OF_ASC_NODE": 273.6197, "ARG_OF_PERICENTER": 189.0449, "MEAN_ANOMALY": 237.3312, "EPHEMERIS_TYPE": 0, "CLASSIFICATION_TYPE": "U", "NORAD_CAT_ID": 3133, "ELEMENT_SET_NO": 999, "REV_AT_EPOCH": 56826, "BSTAR": 0.00026501947, "MEAN_MOTION_DOT": 1.85e-06, "MEAN_MOTION_DDOT": 0}, "tle": {"line1": "1 03133U 68012A   25339.89695257  .00000185  00000+0  26502-3 0  9991", "line2": "2 03133  90.0272 273.6197 0073213 189.0449 237.3312 13.51563444568262"}}, "geometry": {"type": "Point", "coordinates": [-86.37980806508236, 3.598540770969684]}}, {"type": "Feature", "properties": {"norad_id": 4507, "name": "NNSS 19 (TRANSIT 19)", "group": "nnss", "lat": -18.544955705512965, "lon": -125.46845141701297, "alt_km": 962.2526665648411, "timestamp": "2025-12-06T16:45:42.990472+00:00", "meta": {"OBJECT_NAME": "NNSS 19 (TRANSIT 19)", "OBJECT_ID": "1970-067A", "EPOCH": "2025-12-06T04:24:41.441472", "MEAN_MOTION": 13.51312552, "ECCENTRICITY": 0.01709783, "INCLINATION": 90.0058, "RA_OF_ASC_NODE": 234.5293, "ARG_OF_PERICENTER": 312.5195, "MEAN_ANOMALY": 46.1621, "EPHEMERIS_TYPE": 0, "CLASSIFICATION_TYPE": "U", "NORAD_CAT_ID": 4507, "ELEMENT_SET_NO": 999, "REV_AT_EPOCH": 72133, "BSTAR": 0.00034806275, "MEAN_MOTION_DOT": 2.55e-06, "MEAN_MOTION_DDOT": 0}, "tle": {"line1": "1 04507U 70067A   25340.18381298  .00000255  00000+0  34806-3 0  9995", "line2": "2 04507  90.0058 234.5293 0170978 312.5195  46.1621 13.51312552721330"}}, "geometry": {"type": "Point", "coordinates": [-125.46845141701297, -18.544955705512965]}}, {"type": "Feature", "properties": {"norad_id": 6909, "name": "NNSS 20 (TRANSIT 20)", "group": "nnss", "lat": -25.341207123605958, "lon": -104.92355287677147, "alt_km": 1058.9335699592584, "timestamp": "2025-12-06T16:45:42.990483+00:00", "meta": {"OBJECT_NAME": "NNSS 20 (TRANSIT 20)", "OBJECT_ID": "1973-081A", "EPOCH": "2025-12-06T04:37:44.297184", "MEAN_MOTION": 13.71429753, "ECCENTRICITY": 0.01565653, "INCLINATION": 89.856, "RA_OF_ASC_NODE": 255.1523, "ARG_OF_PERICENTER": 97.6982, "MEAN_ANOMALY": 264.1991, "EPHEMERIS_TYPE": 0, "CLASSIFICATION_TYPE": "U", "NORAD_CAT_ID": 6909, "ELEMENT_SET_NO": 999, "REV_AT_EPOCH": 80271, "BSTAR": 0.00034988406, "MEAN_MOTION_DOT": 3.55e-06, "MEAN_MOTION_DDOT": 0}, "tle": {"line1": "1 06909U 73081A   25340.19287381  .00000355  00000+0  34988-3 0  9993", "line2": "2 06909  89.8560 255.1523 0156565  97.6982 264.1991 13.71429753802716"}}, "geometry": {"type": "Point", "coordinates": [-104.92355287677147, -25.341207123605958]}}, {"type": "Feature", "properties": {"norad_id": 10457, "name": "TRANSAT", "group": "nnss", "lat": 36.91790261956977, "lon": 79.07527331482356, "alt_km": 1091.7577946426745, "timestamp": "2025-12-06T16:45:42.990494+00:00", "meta": {"OBJECT_NAME": "TRANSAT", "OBJECT_ID": "1977-106A", "EPOCH": "2025-12-06T01:25:03.749952", "MEAN_MOTION": 13.48942032, "ECCENTRICITY": 0.00247816, "INCLINATION": 89.6483, "RA_OF_ASC_NODE": 78.8335, "ARG_OF_PERICENTER": 209.1474, "MEAN_ANOMALY": 324.9775, "EPHEMERIS_TYPE": 0, "CLASSIFICATION_TYPE": "U", "NORAD_CAT_ID": 10457, "ELEMENT_SET_NO": 999, "REV_AT_EPOCH": 36653, "BSTAR": 0.0002178833, "MEAN_MOTION_DOT": 1.47e-06, "MEAN_MOTION_DDOT": 0}, "tle": {"line1": "1 10457U 77106A   25340.05907118  .00000147  00000+0  21788-3 0  9993", "line2": "2 10457  89.6483  78.8335 0024781 209.1474 324.9775 13.48942032366536"}}, "geometry": {"type": "Point", "coordinates": [79.07527331482356, 36.91790261956977]}}, {"type": "Feature", "properties": {"norad_id": 12458, "name": "NOVA 1", "group": "nnss", "lat": 43.86584349768642, "lon": -88.67137679851672, "alt_km": 1157.260675106725, "timestamp": "2025-12-06T16:45:42.990505+00:00", "meta": {"OBJECT_NAME": "NOVA 1", "OBJECT_ID": "1981-044A", "EPOCH": "2025-12-06T07:05:10.925376", "MEAN_MOTION": 13.23277516, "ECCENTRICITY": 0.00156697, "INCLINATION": 89.8524, "RA_OF_ASC_NODE": 91.4763, "ARG_OF_PERICENTER": 119.8526, "MEAN_ANOMALY": 256.7434, "EPHEMERIS_TYPE": 0, "CLASSIFICATION_TYPE": "U", "NORAD_CAT_ID": 12458, "ELEMENT_SET_NO": 999, "REV_AT_EPOCH": 15101, "BSTAR": 0.0002024482, "MEAN_MOTION_DOT": 9.5e-07, "MEAN_MOTION_DDOT": 0}, "tle": {"line1": "1 12458U 81044A   25340.29526534  .00000095  00000+0  20245-3 0  9996", "line2": "2 12458  89.8524  91.4763 0015669 119.8526 256.7434 13.23277516151013"}}, "geometry": {"type": "Point", "coordinates": [-88.67137679851672, 43.86584349768642]}}, {"type": "Feature", "properties": {"norad_id": 15362, "name": "NOVA 3", "group": "nnss", "lat": 13.81096709988827, "lon": 80.43338820626764, "alt_km": 1152.8249660537767, "timestamp": "2025-12-06T16:45:42.990516+00:00", "meta": {"OBJECT_NAME": "NOVA 3", "OBJECT_ID": "1984-110A", "EPOCH": "2025-12-06T05:57:58.790304", "MEAN_MOTION": 13.23043415, "ECCENTRICITY": 0.00310279, "INCLINATION": 90.1224, "RA_OF_ASC_NODE": 80.4582, "ARG_OF_PERICENTER": 350.1781, "MEAN_ANOMALY": 42.3719, "EPHEMERIS_TYPE": 0, "CLASSIFICATION_TYPE": "U", "NORAD_CAT_ID": 15362, "ELEMENT_SET_NO": 999, "REV_AT_EPOCH": 98613, "BSTAR": 0.00028227425, "MEAN_MOTION_DOT": 1.27e-06, "MEAN_MOTION_DDOT": 0}, "tle": {"line1": "1 15362U 84110A   25340.24859711  .00000127  00000+0  28227-3 0  9995", "line2": "2 15362  90.1224  80.4582 0031027 350.1781  42.3719 13.23043415986131"}}, "geometry": {"type": "Point", "coordinates": [80.43338820626764, 13.81096709988827]}}, {"type": "Feature", "properties": {"norad_id": 15935, "name": "OSCAR 30", "group": "nnss", "lat": 6.569504167775848, "lon": -80.23268912924112, "alt_km": 1085.9547400846686, "timestamp": "2025-12-06T16:45:42.990526+00:00", "meta": {"OBJECT_NAME": "OSCAR 30", "OBJECT_ID": "1985-066A", "EPOCH": "2025-12-06T02:22:56.966880", "MEAN_MOTION": 13.36076545, "ECCENTRICITY": 0.01693734, "INCLINATION": 90.1648, "RA_OF_ASC_NODE": 99.7386, "ARG_OF_PERICENTER": 102.4366, "MEAN_ANOMALY": 68.9207, "EPHEMERIS_TYPE": 0, "CLASSIFICATION_TYPE": "U", "NORAD_CAT_ID": 15935, "ELEMENT_SET_NO": 999, "REV_AT_EPOCH": 96364, "BSTAR": 0.00024126207, "MEAN_MOTION_DOT": 1.44e-06, "MEAN_MOTION_DDOT": 0}, "tle": {"line1": "1 15935U 85066A   25340.09927045  .00000144  00000+0  24126-3 0  9994", "line2": "2 15935  90.1648  99.7386 0169373 102.4366  68.9207 13.36076545963646"}}, "geometry": {"type": "Point", "coordinates": [-80.23268912924112, 6.569504167775848]}}, {"type": "Feature", "properties": {"norad_id": 15936, "name": "OSCAR 24", "group": "nnss", "lat": -71.11088015705204, "lon": -88.32434105735146, "alt_km": 1234.3808925164622, "timestamp": "2025-12-06T16:45:42.990537+00:00", "meta": {"OBJECT_NAME": "OSCAR 24", "OBJECT_ID": "1985-066B", "EPOCH": "2025-12-06T01:59:27.678336", "MEAN_MOTION": 13.35934256, "ECCENTRICITY": 0.01703885, "INCLINATION": 90.1788, "RA_OF_ASC_NODE": 92.1877, "ARG_OF_PERICENTER": 108.9205, "MEAN_ANOMALY": 62.7783, "EPHEMERIS_TYPE": 0, "CLASSIFICATION_TYPE": "U", "NORAD_CAT_ID": 15936, "ELEMENT_SET_NO": 999, "REV_AT_EPOCH": 96554, "BSTAR": 0.0002288096, "MEAN_MOTION_DOT": 1.37e-06, "MEAN_MOTION_DDOT": 0}, "tle": {"line1": "1 15936U 85066B   25340.08295924  .00000137  00000+0  22881-3 0  9996", "line2": "2 15936  90.1788  92.1877 0170388 108.9205  62.7783 13.35934256965548"}}, "geometry": {"type": "Point", "coordinates": [-88.32434105735146, -71.11088015705204]}}]}